{
    "links": {
        "self": "http://www.neowsapp.com/rest/v1/neo/3759672?api_key=iIulBulltgU6a56xZRHN4H3l9WmuAYTsLGpBGhQ2"
    },
    "id": "3759672",
    "neo_reference_id": "3759672",
    "name": "(2016 SK)",
    "designation": "2016 SK",
    "nasa_jpl_url": "http://ssd.jpl.nasa.gov/sbdb.cgi?sstr=3759672",
    "absolute_magnitude_h": 25.3,
    "estimated_diameter": {
        "kilometers": {
            "estimated_diameter_min": 0.0231502122,
            "estimated_diameter_max": 0.0517654482
        },
        "meters": {
            "estimated_diameter_min": 23.150212221,
            "estimated_diameter_max": 51.7654482198
        },
        "miles": {
            "estimated_diameter_min": 0.0143848705,
            "estimated_diameter_max": 0.0321655483
        },
        "feet": {
            "estimated_diameter_min": 75.9521422633,
            "estimated_diameter_max": 169.8341531374
        }
    },
    "is_potentially_hazardous_asteroid": false,
    "close_approach_data": [
        {
            "close_approach_date": "2013-09-06",
            "close_approach_date_full": "2013-Sep-06 13:13",
            "epoch_date_close_approach": 1378473180000,
            "relative_velocity": {
                "kilometers_per_second": "15.8116551397",
                "kilometers_per_hour": "56921.9585029391",
                "miles_per_hour": "35369.0913820068"
            },
            "miss_distance": {
                "astronomical": "0.4540747962",
                "lunar": "176.6350957218",
                "kilometers": "67928622.332204094",
                "miles": "42208888.6650567372"
            },
            "orbiting_body": "Earth"
        },
        {
            "close_approach_date": "2016-09-23",
            "close_approach_date_full": "2016-Sep-23 03:27",
            "epoch_date_close_approach": 1474601220000,
            "relative_velocity": {
                "kilometers_per_second": "8.9806815168",
                "kilometers_per_hour": "32330.4534606456",
                "miles_per_hour": "20088.8864850328"
            },
            "miss_distance": {
                "astronomical": "0.063275248",
                "lunar": "24.614071472",
                "kilometers": "9465842.32452176",
                "miles": "5881801.677689888"
            },
            "orbiting_body": "Earth"
        },
        {
            "close_approach_date": "2019-10-05",
            "close_approach_date_full": "2019-Oct-05 13:45",
            "epoch_date_close_approach": 1570283100000,
            "relative_velocity": {
                "kilometers_per_second": "14.3477354996",
                "kilometers_per_hour": "51651.8477984275",
                "miles_per_hour": "32094.4495389729"
            },
            "miss_distance": {
                "astronomical": "0.4434188129",
                "lunar": "172.4899182181",
                "kilometers": "66334509.927768523",
                "miles": "41218353.1486826974"
            },
            "orbiting_body": "Earth"
        }
    ],
    "orbital_data": {
        "orbit_id": "4",
        "orbit_determination_date": "2017-04-06 08:23:43",
        "first_observation_date": "2016-09-22",
        "last_observation_date": "2016-10-06",
        "data_arc_in_days": 14,
        "observations_used": 21,
        "orbit_uncertainty": "8",
        "minimum_orbit_intersection": ".0630758",
        "jupiter_tisserand_invariant": "4.860",
        "epoch_osculation": "2457656.5",
        "eccentricity": ".2009634083470631",
        "semi_major_axis": "1.330702906713377",
        "inclination": "16.4528293337656",
        "ascending_node_longitude": "179.8223665341445",
        "orbital_period": "560.6864815639836",
        "perihelion_distance": "1.063280315082913",
        "perihelion_argument": "191.257346016648",
        "aphelion_distance": "1.598125498343842",
        "perihelion_time": "2457665.228628685021",
        "mean_anomaly": "354.3956089009987",
        "mean_motion": ".6420700549009367",
        "equinox": "J2000",
        "orbit_class": {
            "orbit_class_type": "AMO",
            "orbit_class_description": "Near-Earth asteroid orbits similar to that of 1221 Amor",
            "orbit_class_range": "1.017 AU < q (perihelion) < 1.3 AU"
        }
    },
    "is_sentry_object": false
}